ELISA W11               
1 38007U 11076A   12015.15953717  .00000397  00000-0  87336-4 0   968
2 38007  98.2105  91.7874 0010062 270.2370  89.7708 14.62751727  4242
ELISA E24               
1 38008U 11076B   12015.15615503  .00000359  00000-0  79620-4 0   995
2 38008  98.2097  91.7930 0010742 271.4827  88.5181 14.62921831  4248
ELISA W23               
1 38009U 11076C   12015.09397467  .00000184  00000-0  45726-4 0   946
2 38009  98.2103  91.7152 0009416 268.3482  91.6655 14.62606585  4237
ELISA E12               
1 38010U 11076D   12015.08522371  .00000332  00000-0  74100-4 0   944
2 38010  98.2106  91.7277 0011198 274.2876  85.7049 14.63053617  4237
SSOT                    
1 38011U 11076E   12015.10736894  .00001071  00000-0  14213-3 0  1013
2 38011  97.9787  90.0536 0001290  91.0144 269.1240 14.81871650  4285
PLEIADES 1              
1 38012U 11076F   12015.08963940  .00000171  00000-0  46671-4 0   973
2 38012  98.2098  91.5622 0001265  90.3164 269.8189 14.58540381  4224
ASAP-S                  
1 38013U 11076G   12015.20591678  .00001533  00000-0  17291-3 0   702
2 38013  97.9875  90.4154 0010596  86.1528 274.0895 14.88046395  4328
NIGCOMSAT 1R            
1 38014U 11077A   12013.90962493  .00000150  00000-0  00000-0 0   213
2 38014   0.2299 264.4090 0000877  58.5833 159.7459  1.00273229   331
CZ-3B R/B               
1 38015U 11077B   12010.77431638  .00002932  00000-0  82177-3 0   171
2 38015  24.3223 329.0939 7583172 190.7273 131.2247  1.92094057   414
SOYUZ-TMA 03M           
1 38036U 11078A   12013.60129381  .00012735  00000-0  16384-3 0   314
2 38036  51.6419 182.5672 0023497 277.7305 165.0079 15.59156017  3602
ZIYUAN 1-02C (ZY 1-02C) 
1 38038U 11079A   12015.09572867 -.00001280  00000-0 -43116-3 0   782
2 38038  98.5534  91.6525 0000749 119.5207 240.6001 14.35340946  3444
CZ-4B R/B               
1 38039U 11079B   12014.87807072  .00001166  00000-0  10559-3 0   255
2 38039  98.4373  92.9070 0209553 295.3575  62.6063 14.82586315  3522
GLOBALSTAR M084         
1 38040U 11080A   12015.08215695 -.00000036  00000-0  87981-4 0   268
2 38040  52.0087 297.2613 0003929 269.1204  90.9273 13.91503880  2422
GLOBALSTAR M080         
1 38041U 11080B   12015.08142373 -.00000078  00000-0  55517-4 0   234
2 38041  52.0081 297.2572 0004380 261.9648  98.0754 13.91626673  2424
GLOBALSTAR M082         
1 38042U 11080C   12015.07701194 -.00000055  00000-0  73094-4 0   253
2 38042  52.0085 297.2348 0005879 266.9506  93.0748 13.91913731  2424
GLOBALSTAR M092         
1 38043U 11080D   12014.21365707 -.00000001  00000-0  11505-3 0   232
2 38043  52.0088 300.5214 0006403 273.1494  86.8723 13.92126813  2294
GLOBALSTAR M090         
1 38044U 11080E   12015.07476267 -.00000024  00000-0  96822-4 0   233
2 38044  52.0087 297.2238 0006676 270.6623  89.3529 13.92159698  2413
GLOBALSTAR M086         
1 38045U 11080F   12015.07994522 -.00000002  00000-0  11430-3 0   230
2 38045  52.0086 297.2497 0004657 274.7060  85.3307 13.91744672  2429
ZIYUAN 3 (ZY 3)         
1 38046U 12001A   12015.11365634  .00002134  00000-0  99186-4 0   227
2 38046  97.4898  90.3173 0007280 224.4963 223.5549 15.21068068   915
VESSELSAT 2             
1 38047U 12001B   12014.50107565  .00003917  00000-0  16684-3 0   116
2 38047  97.4935  89.7200 0008066 272.6338  87.3976 15.23545585   821
CZ-4B R/B               
1 38048U 12001C   12014.84719373  .00230928  23199-5  49234-3 0   132
2 38048  97.5807  90.6178 0196149 347.0302  12.5941 15.72898682   908
2012-002A               
1 38049U 12002A   12015.19688905 -.00000149  00000-0  00000+0 0    89
2 38049  24.3284 115.1917 7244103 182.1973 311.4284  2.27034024    36
2012-002B               
1 38050U 12002B   12013.40424332  .00000567  00000-0  10000-3 0    27
2 38050  24.3303 115.9531 7299872 180.0152 286.1012  2.26924295    00
